[{"OBJECT_NAME":"A-SEANSAT-PG1","OBJECT_ID":"2023-091AH","EPOCH":"2026-03-09T22:32:06.495648","MEAN_MOTION":15.33422293,"ECCENTRICITY":0.00088895,"INCLINATION":97.5184,"RA_OF_ASC_NODE":136.6191,"ARG_OF_PERICENTER":78.3219,"MEAN_ANOMALY":281.902,"EPHEMERIS_TYPE":0,"CLASSIFICATION_TYPE":"U","NORAD_CAT_ID":57197,"ELEMENT_SET_NO":999,"REV_AT_EPOCH":14948,"BSTAR":0.0007038551,"MEAN_MOTION_DOT":0.00022724,"MEAN_MOTION_DDOT":0},{"OBJECT_NAME":"STARLINK-33621","OBJECT_ID":"2025-063N","EPOCH":"2026-03-09T22:20:22.551648","MEAN_MOTION":15.30221212,"ECCENTRICITY":0.0001866,"INCLINATION":53.1606,"RA_OF_ASC_NODE":48.6935,"ARG_OF_PERICENTER":96.4994,"MEAN_ANOMALY":263.622,"EPHEMERIS_TYPE":0,"CLASSIFICATION_TYPE":"U","NORAD_CAT_ID":63375,"ELEMENT_SET_NO":999,"REV_AT_EPOCH":5478,"BSTAR":0.0013593555,"MEAN_MOTION_DOT":0.00040146,"MEAN_MOTION_DDOT":0}]
